#aV2010  9  7  0  0   .00000000      96 DD+AD WGS84 FIT  NGA
## 1600 172800.00000000   900.00000000 55446  .0000000000000
+   32     1  2  3  4  5  6  7  8  9 10 11 12 13 14 15 16 17
+         18 19 20 21 22 23 24 25 26 27 28 29 30 31 32  0  0
+          0  0  0  0  0  0  0  0  0  0  0  0  0  0  0  0  0
+          0  0  0  0  0  0  0  0  0  0  0  0  0  0  0  0  0
+          0  0  0  0  0  0  0  0  0  0  0  0  0  0  0  0  0
++         0  0  0  0  0  0  0  0  0  0  0  0  0  0  0  0  0
++         0  0  0  0  0  0  0  0  0  0  0  0  0  0  0  0  0
++         0  0  0  0  0  0  0  0  0  0  0  0  0  0  0  0  0
++         0  0  0  0  0  0  0  0  0  0  0  0  0  0  0  0  0
++         0  0  0  0  0  0  0  0  0  0  0  0  0  0  0  0  0
%c cc cc ccc ccc cccc cccc cccc cccc ccccc ccccc ccccc ccccc
%c cc cc ccc ccc cccc cccc cccc cccc ccccc ccccc ccccc ccccc
%f  0.0000000  0.000000000  0.00000000000  0.000000000000000
%f  0.0000000  0.000000000  0.00000000000  0.000000000000000
%i    0    0    0    0      0      0      0      0         0
%i    0    0    0    0      0      0      0      0         0
/*      NGA, ST. LOUIS,MO.                                  
/*   EPHEMERIS COMPUTED FROM  3 DAYS OF DATA                
/* CCCCCCCCCCCCCCCCCCCCCCCCCCCCCCCCCCCCCCCCCCCCCCCCCCCCCCCCC
/* CCCCCCCCCCCCCCCCCCCCCCCCCCCCCCCCCCCCCCCCCCCCCCCCCCCCCCCCC
*  2010  9  7  9  0   .00000000                                                 
P  1  -5574.673432 -14838.484976 -21410.993227   -159.975298                    
V  1  20584.618800 -17353.710312   6826.966151      -.039163                    
P  2  13434.690256  19609.867265 -12316.799225    286.671043                    
V  2    808.486080  15689.591976  25405.793015       .028167                    
P  3 -23911.104965 -10133.341463  -6746.750002    605.190052                    
V  3   8541.078644  -1605.492868 -29224.192509       .048038                    
P  4   6356.144671  25536.723492  -1771.066822    164.089758                    
V  4  -3334.525214   2763.168568  31386.552048       .088388                    
P  5  16287.680430   4859.024069 -20442.850648    -33.443804                    
V  5 -18819.873947  17854.490204 -10666.154711      -.049985                    
P  6 -20560.963155 -13527.257658 -10034.708189    503.467514                    
V  6  13331.265501    550.166564 -27423.828945      -.149700                    
P  7  -7404.641414  19644.117529 -16160.835428     -1.903548                    
V  7  -5655.313924 -19841.890434 -21725.436234       .000149                    
P  8   -773.857799  25573.337726  -5954.290341      6.606687                    
V  8  -3050.621098  -7329.799239 -31637.926688       .001292                    
P  9  14777.625098    130.602006  21527.525617     28.969129                    
V  9   5993.068901  27954.952629  -4162.715498       .023442                    
P 10   4508.324680  15760.723253 -21018.158428    -51.671492                    
V 10 -20809.507270  16220.464582   8117.753669      -.010442                    
P 11 -15436.691179   6178.214550  20438.770533    -87.833365                    
V 11 -11376.200183 -24408.743499   -828.341788      -.026678                    
P 12  22322.680741  -9647.370471  10529.283656    -75.397558                    
V 12  -8661.817701  10418.013350  28147.612829       .037415                    
P 13 -14393.901615   8614.775321 -20740.957958    298.009556                    
V 13 -23640.961915 -10675.113926  12004.118994      -.009149                    
P 14  -6623.204261 -16711.756875  19751.353060     86.232011                    
V 14  23208.436471   8324.901412  14802.342735       .037527                    
P 15  25755.887334   4446.805831   5116.444742   -212.623395                    
V 15   5270.521785   4710.447781 -30606.191833       .053873                    
P 16 -11454.189329  -9833.468751 -21838.878236   -106.299328                    
V 16  21318.935129 -17759.085752  -2910.908812      -.034627                    
P 17   3173.055467  16562.741507  20676.258464    169.796142                    
V 17 -24635.207543  -8223.681365  10210.221175       .014639                    
P 18  15792.182158 -20011.872801   7004.076983     91.618623                    
V 18   8986.686314  -2741.962701 -29695.837009       .022427                    
P 19 -25274.765464  -6270.813947   6060.902126    -63.892269                    
V 19  -5992.471630  -5317.662797 -30249.736924      -.031292                    
P 20 -22096.890402  10991.805738   9611.607910     51.382638                    
V 20   6830.904817 -10925.330655  27869.819402      -.004214                    
P 21   6050.482515 -21605.115787 -13361.265628    -86.449954                    
V 21   6636.174375  16943.507514 -24386.152954      -.026714                    
P 22   5569.631958 -20324.666172  16282.064749    163.613403                    
V 22  17278.892573 -11250.783175 -20265.237458      -.008594                    
P 23 -22447.534153   2538.697785 -14246.108613    354.970220                    
V 23 -16333.704865  -7587.389433  24074.965526      -.017974                    
P 24 -13003.670286 -18481.890298  14251.221891    319.529702                    
V 24   -391.783666 -18014.497663 -23591.258573       .032168                    
P 25  19990.728753 -17489.352998    611.929383    -40.883725                    
V 25   1297.325248   2634.100369  31722.384862      -.007836                    
P 26  23316.231962  12699.253582  -4131.028995     -6.431679                    
V 26  -4675.108031   -386.594994 -31558.941299      -.069407                    
P 27  16063.589871   5819.145678  21066.799313    186.737033                    
V 27   5614.203952  24486.146826 -11221.983232       .034769                    
P 28  -8525.559124  20286.648950  15146.230942     -4.483946                    
V 28 -15509.629292  10215.719519 -23435.132804       .014508                    
P 29  15461.301336  -8807.708382 -19622.360722    147.617590                    
V 29  23050.842143  10031.339067  13642.566642       .027653                    
P 30  18757.067099 -18770.801351   -845.214241    276.221042                    
V 30   2475.787266   1739.420785  31671.517776       .033285                    
P 31  -7628.340295 -24982.842396  -4049.681462    -11.215441                    
V 31   1333.536003  -5775.895453  31693.153089       .030290                    
P 32 -21979.361564   3413.575347  14571.116078    -79.552176                    
V 32  13204.236581 -12578.511649  23752.692418      -.089955                    
EOF
